KUIPER-00167            
1 65780U 25217U   25299.16115588  .00041969  00000+0  11834-2 0  9992
2 65780  51.8693 294.6103 0005438 201.7552 158.3203 15.35988434  4722
KUIPER-00168            
1 65781U 25217V   25298.99616582  .00048424  00000+0  12902-2 0  9993
2 65781  51.8738 295.0208 0003084  72.2539 287.8785 15.37692310  4703
KUIPER-00169            
1 65782U 25217W   25298.94637199  .00020648  00000+0  57138-3 0  9995
2 65782  51.8717 295.4299 0002872 156.8539 203.2578 15.36962819  4691
KUIPER-00170            
1 65783U 25217X   25299.15927161  .00036661  00000+0  10348-2 0  9994
2 65783  51.8679 294.5958 0004878 198.7982 161.2825 15.36020038  4726
KUIPER-00171            
1 65784U 25217Y   25299.16668980 -.00015130  00000+0 -34579-3 0  9990
2 65784  51.8688 294.3313 0005542 182.3133 333.4592 15.41506892  4857
KUIPER-00172            
1 65785U 25217Z   25298.48309325  .00045066  00000+0  12143-2 0  9991
2 65785  51.8728 297.5769 0002457 125.7949 234.3266 15.37378105  4622
KUIPER-00173            
1 65786U 25217AA  25298.48742742  .00040234  00000+0  10935-2 0  9995
2 65786  51.8710 297.6063 0002694 139.7035 220.4152 15.37161508  4623
KUIPER-00174            
1 65787U 25217AB  25298.99829046  .00034316  00000+0  92225-3 0  9992
2 65787  51.8726 295.0285 0003347  98.5997 261.5369 15.37583485  4701
